H1 CPF  1  DLR 2021 01 20 10  5202 technosat            
H2  1704205 6203    42829 2021 01 20 00 00 00 2021 01 27 00 00 00    60 1 1  0 0 0
H9
10 0 59234  28800.000000  0      -6617794.778      -1958747.393      -1023697.022
10 0 59234  28860.000000  0      -6565541.702      -1849903.824      -1465914.767
10 0 59234  28920.000000  0      -6484669.661      -1733856.020      -1901917.476
10 0 59234  28980.000000  0      -6375462.429      -1611342.412      -2329857.561
10 0 59234  29040.000000  0      -6238330.438      -1483125.744      -2747922.361
10 0 59234  29100.000000  0      -6073809.075      -1349988.681      -3154341.966
10 0 59234  29160.000000  0      -5882556.369      -1212729.354      -3547396.821
10 0 59234  29220.000000  0      -5665350.121      -1072156.869      -3925425.063
10 0 59234  29280.000000  0      -5423084.472       -929086.786      -4286829.576
10 0 59234  29340.000000  0      -5156765.940       -784336.610      -4630084.724
10 0 59234  29400.000000  0      -4867508.926       -638721.320      -4953742.729
10 0 59234  29460.000000  0      -4556530.755       -493049.006      -5256439.667
10 0 59234  29520.000000  0      -4225146.243       -348116.568      -5536901.079
10 0 59234  29580.000000  0      -3874761.868       -204705.518      -5793947.112
10 0 59234  29640.000000  0      -3506869.577        -63577.924      -6026497.250
10 0 59234  29700.000000  0      -3123040.248         74527.480      -6233574.585
10 0 59234  29760.000000  0      -2724916.897        208899.013      -6414309.669
10 0 59234  29820.000000  0      -2314207.550        338855.556      -6567943.973
10 0 59234  29880.000000  0      -1892677.816        463749.856      -6693832.844
10 0 59234  29940.000000  0      -1462143.306        582971.626      -6791447.981
10 0 59234  30000.000000  0      -1024461.865        695950.475      -6860379.482
10 0 59234  30060.000000  0       -581525.613        802158.580      -6900337.388
10 0 59234  30120.000000  0       -135252.902        901113.090      -6911152.770
10 0 59234  30180.000000  0        312419.799        992378.249      -6892778.437
10 0 59234  30240.000000  0        759546.182       1075567.266      -6845289.322
10 0 59234  30300.000000  0       1204178.600       1150343.989      -6768882.300
10 0 59234  30360.000000  0       1644376.495       1216424.288      -6663875.358
10 0 59234  30420.000000  0       2078214.742       1273577.134      -6530706.435
10 0 59234  30480.000000  0       2503792.101       1321625.421      -6369931.802
10 0 59234  30540.000000  0       2919239.583       1360446.478      -6182223.829
10 0 59234  30600.000000  0       3322728.577       1389972.274      -5968368.355
10 0 59234  30660.000000  0       3712478.927       1410189.368      -5729261.713
10 0 59234  30720.000000  0       4086766.913       1421138.561      -5465907.243
10 0 59234  30780.000000  0       4443933.032       1422914.262      -5179411.379
10 0 59234  30840.000000  0       4782389.624       1415663.595      -4870979.228
10 0 59234  30900.000000  0       5100628.154       1399585.188      -4541909.645
10 0 59234  30960.000000  0       5397226.175       1374927.688      -4193589.963
10 0 59234  31020.000000  0       5670853.988       1341988.009      -3827490.280
10 0 59234  31080.000000  0       5920280.890       1301109.299      -3445157.368
10 0 59234  31140.000000  0       6144381.042       1252678.654      -3048208.244
10 0 59234  31200.000000  0       6342138.939       1197124.604      -2638323.351
10 0 59234  31260.000000  0       6512654.355       1134914.362      -2217239.368
10 0 59234  31320.000000  0       6655146.757       1066550.859      -1786741.731
10 0 59234  31380.000000  0       6768959.144        992569.550      -1348656.896
10 0 59234  31440.000000  0       6853561.298        913535.027       -904844.403
10 0 59234  31500.000000  0       6908552.427        830037.496       -457188.736
10 0 59234  31560.000000  0       6933663.119        742689.135         -7591.073
10 0 59234  31620.000000  0       6928756.738        652120.365        442038.959
10 0 59234  31680.000000  0       6893830.244        558975.959        889791.681
10 0 59234  31740.000000  0       6829014.283        463911.052       1333765.738
10 0 59234  31800.000000  0       6734572.666        367587.159       1772076.481
10 0 59234  31860.000000  0       6610901.068        270668.164       2202864.284
10 0 59234  31920.000000  0       6458525.094        173816.332       2624302.574
10 0 59234  31980.000000  0       6278097.880         77688.327       3034605.720
10 0 59234  32040.000000  0       6070396.979        -17068.767       3432036.828
10 0 59234  32100.000000  0       5836320.524       -109821.267       3814915.101
10 0 59234  32160.000000  0       5576883.106       -199952.510       4181622.850
10 0 59234  32220.000000  0       5293211.136       -286866.493       4530612.431
10 0 59234  32280.000000  0       4986537.543       -369991.401       4860412.724
10 0 59234  32340.000000  0       4658196.048       -448782.904       5169635.251
10 0 59234  32400.000000  0       4309614.927       -522727.280       5456979.793
10 0 59234  32460.000000  0       3942310.561       -591344.301       5721239.570
10 0 59234  32520.000000  0       3557880.645       -654189.923       5961306.130
10 0 59234  32580.000000  0       3157996.976       -710858.794       6176173.756
10 0 59234  32640.000000  0       2744398.040       -760986.514       6364943.343
10 0 59234  32700.000000  0       2318881.404       -804251.643       6526825.922
10 0 59234  32760.000000  0       1883295.836       -840377.478       6661145.783
10 0 59234  32820.000000  0       1439533.185       -869133.595       6767343.063
10 0 59234  32880.000000  0        989520.122       -890337.106       6844975.828
10 0 59234  32940.000000  0        535209.838       -903853.625       6893721.667
10 0 59234  33000.000000  0         78573.663       -909598.004       6913378.890
10 0 59234  33060.000000  0       -378407.387       -907534.799       6903867.206
10 0 59234  33120.000000  0       -833751.042       -897678.463       6865228.003
10 0 59234  33180.000000  0      -1285482.263       -880093.255       6797624.165
10 0 59234  33240.000000  0      -1731641.661       -854892.860       6701339.383
10 0 59234  33300.000000  0      -2170293.830       -822239.761       6576777.060
10 0 59234  33360.000000  0      -2599535.621       -782344.343       6424458.791
10 0 59234  33420.000000  0      -3017504.336       -735463.705       6245022.424
10 0 59234  33480.000000  0      -3422385.837       -681900.233       6039219.614
10 0 59234  33540.000000  0      -3812422.448       -621999.945       5807912.918
10 0 59234  33600.000000  0      -4185920.688       -556150.571       5552072.451
10 0 59234  33660.000000  0      -4541258.786       -484779.370       5272772.050
10 0 59234  33720.000000  0      -4876893.859       -408350.742       4971184.956
10 0 59234  33780.000000  0      -5191368.796       -327363.608       4648579.132
10 0 59234  33840.000000  0      -5483318.858       -242348.581       4306312.118
10 0 59234  33900.000000  0      -5751477.800       -153864.931       3945825.445
10 0 59234  33960.000000  0      -5994683.599        -62497.373       3568638.764
10 0 59234  34020.000000  0      -6211883.819         31147.304       3176343.605
10 0 59234  34080.000000  0      -6402140.519        126443.791       2770596.735
10 0 59234  34140.000000  0      -6564634.633        222751.949       2353113.160
10 0 59234  34200.000000  0      -6698669.786        319420.574       1925658.850
10 0 59234  34260.000000  0      -6803675.596        415791.242       1490043.195
10 0 59234  34320.000000  0      -6879210.359        511202.227       1048111.201
10 0 59234  34380.000000  0      -6924963.120        604992.471        601735.519
10 0 59234  34440.000000  0      -6940755.128        696505.570        152808.295
10 0 59234  34500.000000  0      -6926540.624        785093.750       -296767.083
10 0 59234  34560.000000  0      -6882406.968        870121.815       -745084.287
10 0 59234  34620.000000  0      -6808574.114        950971.014      -1190242.356
10 0 59234  34680.000000  0      -6705393.457       1027042.818      -1630353.910
10 0 59234  34740.000000  0      -6573346.170       1097762.608      -2063553.297
10 0 59234  34800.000000  0      -6413040.945       1162583.294      -2488004.779
10 0 59234  34860.000000  0      -6225210.972       1220988.773      -2901910.613
10 0 59234  34920.000000  0      -6010710.224       1272497.153      -3303518.817
10 0 59234  34980.000000  0      -5770509.284       1316663.772      -3691130.638
10 0 59234  35040.000000  0      -5505690.659       1353084.064      -4063107.762
10 0 59234  35100.000000  0      -5217443.594       1381396.179      -4417879.230
10 0 59234  35160.000000  0      -4907058.431       1401283.367      -4753948.033
10 0 59234  35220.000000  0      -4575920.502       1412476.106      -5069897.319
10 0 59234  35280.000000  0      -4225503.672       1414753.977      -5364396.183
10 0 59234  35340.000000  0      -3857363.564       1407947.276      -5636205.086
10 0 59234  35400.000000  0      -3473130.459       1391938.339      -5884180.905
10 0 59234  35460.000000  0      -3074501.884       1366662.553      -6107281.518
10 0 59234  35520.000000  0      -2663235.018       1332109.103      -6304569.939
10 0 59234  35580.000000  0      -2241138.827       1288321.506      -6475218.088
10 0 59234  35640.000000  0      -1810065.973       1235397.818      -6618509.975
10 0 59234  35700.000000  0      -1371904.710       1173490.522      -6733844.422
10 0 59234  35760.000000  0       -928570.673       1102806.136      -6820737.398
10 0 59234  35820.000000  0       -481998.565       1023604.554      -6878823.854
10 0 59234  35880.000000  0        -34133.887        936198.142      -6907859.109
10 0 59234  35940.000000  0        413075.346        840950.531      -6907719.917
99
